{"type": "FeatureCollection", "features": [ {"type": "Feature", "properties": {"norad_id": 29820, "name": "FENGYUN 1C DEB", "group": "fengyun-1c-debris", "lat": -51.98484262391317, "lon": 152.34349414525738, "alt_km": 848.5676936176924, "timestamp": "2025-12-02T10:50:47.545551+00:00", "meta": {"OBJECT_NAME": "FENGYUN 1C DEB", "OBJECT_ID": "1999-025DN", "EPOCH": "2025-12-01T23:43:13.835712", "MEAN_MOTION": 14.02577663, "ECCENTRICITY": 0.0071574, "INCLINATION": 98.832, "RA_OF_ASC_NODE": 343.3663, "ARG_OF_PERICENTER": 268.0975, "MEAN_ANOMALY": 145.6812, "EPHEMERIS_TYPE": 0, "CLASSIFICATION_TYPE": "U", "NORAD_CAT_ID": 29820, "ELEMENT_SET_NO": 999, "REV_AT_EPOCH": 96409, "BSTAR": 0.00047288, "MEAN_MOTION_DOT": 7.02e-06, "MEAN_MOTION_DDOT": 0}, "tle": {"line1": "1 29820U 99025DN  25335.98835458  .00000702  00000+0  47288-3 0  9994", "line2": "2 29820  98.8320 343.3663 0071574 268.0975 145.6812 14.02577663964098"}}, "geometry": {"type": "Point", "coordinates": [152.34349414525738, -51.98484262391317]}}, {"type": "Feature", "properties": {"norad_id": 29821, "name": "FENGYUN 1C DEB", "group": "fengyun-1c-debris", "lat": -29.331805691044703, "lon": 36.58020020521514, "alt_km": 1134.342100961344, "timestamp": "2025-12-02T10:50:47.545561+00:00", "meta": {"OBJECT_NAME": "FENGYUN 1C DEB", "OBJECT_ID": "1999-025DP", "EPOCH": "2025-12-02T02:45:32.582880", "MEAN_MOTION": 14.10971141, "ECCENTRICITY": 0.0376581, "INCLINATION": 98.8751, "RA_OF_ASC_NODE": 31.2095, "ARG_OF_PERICENTER": 150.7357, "MEAN_ANOMALY": 268.9629, "EPHEMERIS_TYPE": 0, "CLASSIFICATION_TYPE": "U", "NORAD_CAT_ID": 29821, "ELEMENT_SET_NO": 999, "REV_AT_EPOCH": 96361, "BSTAR": 0.0010755, "MEAN_MOTION_DOT": 3.722e-05, "MEAN_MOTION_DDOT": 0}, "tle": {"line1": "1 29821U 99025DP  25336.11496045  .00003722  00000+0  10755-2 0  9999", "line2": "2 29821  98.8751  31.2095 0376581 150.7357 268.9629 14.10971141963616"}}, "geometry": {"type": "Point", "coordinates": [36.58020020521514, -29.331805691044703]}}, {"type": "Feature", "properties": {"norad_id": 29827, "name": "FENGYUN 1C DEB", "group": "fengyun-1c-debris", "lat": -77.18522016776748, "lon": 9.625688519552716, "alt_km": 821.6653059078026, "timestamp": "2025-12-02T10:50:47.545571+00:00", "meta": {"OBJECT_NAME": "FENGYUN 1C DEB", "OBJECT_ID": "1999-025DV", "EPOCH": "2025-12-01T21:59:19.228128", "MEAN_MOTION": 14.2165992, "ECCENTRICITY": 0.0025567, "INCLINATION": 98.6016, "RA_OF_ASC_NODE": 327.3888, "ARG_OF_PERICENTER": 354.215, "MEAN_ANOMALY": 65.2413, "EPHEMERIS_TYPE": 0, "CLASSIFICATION_TYPE": "U", "NORAD_CAT_ID": 29827, "ELEMENT_SET_NO": 999, "REV_AT_EPOCH": 97709, "BSTAR": 0.0004047, "MEAN_MOTION_DOT": 8.48e-06, "MEAN_MOTION_DDOT": 0}, "tle": {"line1": "1 29827U 99025DV  25335.91619477  .00000848  00000+0  40470-3 0  9992", "line2": "2 29827  98.6016 327.3888 0025567 354.2150  65.2413 14.21659920977096"}}, "geometry": {"type": "Point", "coordinates": [9.625688519552716, -77.18522016776748]}}, {"type": "Feature", "properties": {"norad_id": 29828, "name": "FENGYUN 1C DEB", "group": "fengyun-1c-debris", "lat": 62.6155644984657, "lon": -140.44836400244282, "alt_km": 843.3934023676748, "timestamp": "2025-12-02T10:50:47.545581+00:00", "meta": {"OBJECT_NAME": "FENGYUN 1C DEB", "OBJECT_ID": "1999-025DW", "EPOCH": "2025-12-02T01:54:36.929376", "MEAN_MOTION": 14.08115037, "ECCENTRICITY": 0.0061093, "INCLINATION": 98.7712, "RA_OF_ASC_NODE": 21.8494, "ARG_OF_PERICENTER": 185.7753, "MEAN_ANOMALY": 204.4247, "EPHEMERIS_TYPE": 0, "CLASSIFICATION_TYPE": "U", "NORAD_CAT_ID": 29828, "ELEMENT_SET_NO": 999, "REV_AT_EPOCH": 96587, "BSTAR": 0.00098757, "MEAN_MOTION_DOT": 1.669e-05, "MEAN_MOTION_DDOT": 0}, "tle": {"line1": "1 29828U 99025DW  25336.07959409  .00001669  00000+0  98757-3 0  9996", "line2": "2 29828  98.7712  21.8494 0061093 185.7753 204.4247 14.08115037965876"}}, "geometry": {"type": "Point", "coordinates": [-140.44836400244282, 62.6155644984657]}}, {"type": "Feature", "properties": {"norad_id": 29832, "name": "FENGYUN 1C DEB", "group": "fengyun-1c-debris", "lat": 22.617054200340345, "lon": -89.01226466205652, "alt_km": 829.8129243688409, "timestamp": "2025-12-02T10:50:47.545592+00:00", "meta": {"OBJECT_NAME": "FENGYUN 1C DEB", "OBJECT_ID": "1999-025EA", "EPOCH": "2025-12-02T01:52:25.156416", "MEAN_MOTION": 14.56526584, "ECCENTRICITY": 0.0192558, "INCLINATION": 98.8193, "RA_OF_ASC_NODE": 86.8837, "ARG_OF_PERICENTER": 315.7875, "MEAN_ANOMALY": 42.807, "EPHEMERIS_TYPE": 0, "CLASSIFICATION_TYPE": "U", "NORAD_CAT_ID": 29832, "ELEMENT_SET_NO": 999, "REV_AT_EPOCH": 100, "BSTAR": 0.00015201, "MEAN_MOTION_DOT": 8.04e-06, "MEAN_MOTION_DDOT": 0}, "tle": {"line1": "1 29832U 99025EA  25336.07806894  .00000804  00000+0  15201-3 0  9993", "line2": "2 29832  98.8193  86.8837 0192558 315.7875  42.8070 14.56526584  1008"}}, "geometry": {"type": "Point", "coordinates": [-89.01226466205652, 22.617054200340345]}}, {"type": "Feature", "properties": {"norad_id": 29833, "name": "FENGYUN 1C DEB", "group": "fengyun-1c-debris", "lat": -25.606817762058487, "lon": -38.36415580942385, "alt_km": 555.747491704863, "timestamp": "2025-12-02T10:50:47.545603+00:00", "meta": {"OBJECT_NAME": "FENGYUN 1C DEB", "OBJECT_ID": "1999-025EB", "EPOCH": "2025-12-02T01:17:44.452608", "MEAN_MOTION": 14.90648546, "ECCENTRICITY": 0.0089846, "INCLINATION": 99.0756, "RA_OF_ASC_NODE": 316.7853, "ARG_OF_PERICENTER": 291.9924, "MEAN_ANOMALY": 67.1762, "EPHEMERIS_TYPE": 0, "CLASSIFICATION_TYPE": "U", "NORAD_CAT_ID": 29833, "ELEMENT_SET_NO": 999, "REV_AT_EPOCH": 412, "BSTAR": 0.001571, "MEAN_MOTION_DOT": 0.0001658, "MEAN_MOTION_DDOT": 0}, "tle": {"line1": "1 29833U 99025EB  25336.05398672  .00016580  00000+0  15710-2 0  9994", "line2": "2 29833  99.0756 316.7853 0089846 291.9924  67.1762 14.90648546  4120"}}, "geometry": {"type": "Point", "coordinates": [-38.36415580942385, -25.606817762058487]}}, {"type": "Feature", "properties": {"norad_id": 29835, "name": "FENGYUN 1C DEB", "group": "fengyun-1c-debris", "lat": 59.3515746602151, "lon": -60.214777274317946, "alt_km": 666.1768864034902, "timestamp": "2025-12-02T10:50:47.545613+00:00", "meta": {"OBJECT_NAME": "FENGYUN 1C DEB", "OBJECT_ID": "1999-025ED", "EPOCH": "2025-12-01T23:13:37.380000", "MEAN_MOTION": 14.43364996, "ECCENTRICITY": 0.0168276, "INCLINATION": 99.0252, "RA_OF_ASC_NODE": 103.7131, "ARG_OF_PERICENTER": 69.0189, "MEAN_ANOMALY": 54.5974, "EPHEMERIS_TYPE": 0, "CLASSIFICATION_TYPE": "U", "NORAD_CAT_ID": 29835, "ELEMENT_SET_NO": 999, "REV_AT_EPOCH": 99339, "BSTAR": 8.6077e-05, "MEAN_MOTION_DOT": 2.88e-06, "MEAN_MOTION_DDOT": 0}, "tle": {"line1": "1 29835U 99025ED  25335.96779375  .00000288  00000+0  86077-4 0  9992", "line2": "2 29835  99.0252 103.7131 0168276  69.0189  54.5974 14.43364996993391"}}, "geometry": {"type": "Point", "coordinates": [-60.214777274317946, 59.3515746602151]}}, {"type": "Feature", "properties": {"norad_id": 29836, "name": "FENGYUN 1C DEB", "group": "fengyun-1c-debris", "lat": -25.0196771889291, "lon": 76.46250996101206, "alt_km": 736.5529466005746, "timestamp": "2025-12-02T10:50:47.545624+00:00", "meta": {"OBJECT_NAME": "FENGYUN 1C DEB", "OBJECT_ID": "1999-025EE", "EPOCH": "2025-12-01T05:22:27.813792", "MEAN_MOTION": 14.53982108, "ECCENTRICITY": 0.0154262, "INCLINATION": 98.1891, "RA_OF_ASC_NODE": 71.4071, "ARG_OF_PERICENTER": 238.0977, "MEAN_ANOMALY": 150.9563, "EPHEMERIS_TYPE": 0, "CLASSIFICATION_TYPE": "U", "NORAD_CAT_ID": 29836, "ELEMENT_SET_NO": 999, "REV_AT_EPOCH": 63388, "BSTAR": 0.00076077, "MEAN_MOTION_DOT": 3.703e-05, "MEAN_MOTION_DDOT": 0}, "tle": {"line1": "1 29836U 99025EE  25335.22393303  .00003703  00000+0  76077-3 0  9998", "line2": "2 29836  98.1891  71.4071 0154262 238.0977 150.9563 14.53982108633880"}}, "geometry": {"type": "Point", "coordinates": [76.46250996101206, -25.0196771889291]}}, {"type": "Feature", "properties": {"norad_id": 29841, "name": "FENGYUN 1C DEB", "group": "fengyun-1c-debris", "lat": -80.57900092427757, "lon": 33.88126928885854, "alt_km": 761.5928608322429, "timestamp": "2025-12-02T10:50:47.545634+00:00", "meta": {"OBJECT_NAME": "FENGYUN 1C DEB", "OBJECT_ID": "1999-025EK", "EPOCH": "2025-12-01T20:35:51.527328", "MEAN_MOTION": 14.46378085, "ECCENTRICITY": 0.020137, "INCLINATION": 98.8169, "RA_OF_ASC_NODE": 282.5611, "ARG_OF_PERICENTER": 6.3228, "MEAN_ANOMALY": 53.0267, "EPHEMERIS_TYPE": 0, "CLASSIFICATION_TYPE": "U", "NORAD_CAT_ID": 29841, "ELEMENT_SET_NO": 999, "REV_AT_EPOCH": 99166, "BSTAR": 0.00066162, "MEAN_MOTION_DOT": 3e-05, "MEAN_MOTION_DDOT": 0}, "tle": {"line1": "1 29841U 99025EK  25335.85823527  .00003000  00000+0  66162-3 0  9993", "line2": "2 29841  98.8169 282.5611 0201370   6.3228  53.0267 14.46378085991666"}}, "geometry": {"type": "Point", "coordinates": [33.88126928885854, -80.57900092427757]}}, {"type": "Feature", "properties": {"norad_id": 29842, "name": "FENGYUN 1C DEB", "group": "fengyun-1c-debris", "lat": 9.436652535089003, "lon": -114.92299260795382, "alt_km": 625.5582400221138, "timestamp": "2025-12-02T10:50:47.545644+00:00", "meta": {"OBJECT_NAME": "FENGYUN 1C DEB", "OBJECT_ID": "1999-025EL", "EPOCH": "2025-12-01T22:50:04.587072", "MEAN_MOTION": 14.59982118, "ECCENTRICITY": 0.0109311, "INCLINATION": 98.57, "RA_OF_ASC_NODE": 63.1236, "ARG_OF_PERICENTER": 198.4545, "MEAN_ANOMALY": 223.3959, "EPHEMERIS_TYPE": 0, "CLASSIFICATION_TYPE": "U", "NORAD_CAT_ID": 29842, "ELEMENT_SET_NO": 999, "REV_AT_EPOCH": 99196, "BSTAR": 0.0017554, "MEAN_MOTION_DOT": 9.111e-05, "MEAN_MOTION_DDOT": 0}, "tle": {"line1": "1 29842U 99025EL  25335.95144198  .00009111  00000+0  17554-2 0  9994", "line2": "2 29842  98.5700  63.1236 0109311 198.4545 223.3959 14.59982118991963"}}, "geometry": {"type": "Point", "coordinates": [-114.92299260795382, 9.436652535089003]}}]}